[
    {
        "Altitude(m)": 707306.221219545,
        "Argument of Periapsis(deg)": 0.006834072711976239,
        "Eccentricity": 0.0,
        "Inclination(deg)": 45.0,
        "Latitude(deg)": 45.14056079206139,
        "Longitude(deg)": -177.22823884179948,
        "Mean Anomaly(deg)": 88.73812998848854,
        "RAAN(deg)": 194.9935488351251,
        "Satellite Name": "Constellation 1 863",
        "Satellite Number": 863,
        "Semi-Major Axis(m)": 7083131.272910544,
        "Time(s)": 114
    },
    {
        "Altitude(m)": 707306.5235750588,
        "Argument of Periapsis(deg)": 0.006894020718221645,
        "Eccentricity": 0.0,
        "Inclination(deg)": 45.0,
        "Latitude(deg)": 45.1418615664381,
        "Longitude(deg)": -177.14649300992792,
        "Mean Anomaly(deg)": 88.79883112873839,
        "RAAN(deg)": 194.99349224595954,
        "Satellite Name": "Constellation 1 863",
        "Satellite Number": 863,
        "Semi-Major Axis(m)": 7083131.272910544,
        "Time(s)": 115
    },
    {
        "Altitude(m)": 707306.8113080959,
        "Argument of Periapsis(deg)": 0.006953968724467052,
        "Eccentricity": 0.0,
        "Inclination(deg)": 45.0,
        "Latitude(deg)": 45.14309782574679,
        "Longitude(deg)": -177.0647433730714,
        "Mean Anomaly(deg)": 88.85953226898829,
        "RAAN(deg)": 194.99343565679393,
        "Satellite Name": "Constellation 1 863",
        "Satellite Number": 863,
        "Semi-Major Axis(m)": 7083131.272910544,
        "Time(s)": 116
    },
    {
        "Altitude(m)": 707307.0844169986,
        "Argument of Periapsis(deg)": 0.007013916730712457,
        "Eccentricity": 0.0,
        "Inclination(deg)": 45.0,
        "Latitude(deg)": 45.144269564467116,
        "Longitude(deg)": -176.98299012445153,
        "Mean Anomaly(deg)": 88.92023340923818,
        "RAAN(deg)": 194.99337906762838,
        "Satellite Name": "Constellation 1 863",
        "Satellite Number": 863,
        "Semi-Major Axis(m)": 7083131.272910544,
        "Time(s)": 117
    },
    {
        "Altitude(m)": 707307.3429002183,
        "Argument of Periapsis(deg)": 0.007073864736957864,
        "Eccentricity": 0.0,
        "Inclination(deg)": 45.0,
        "Latitude(deg)": 45.14537677736626,
        "Longitude(deg)": -176.901233457355,
        "Mean Anomaly(deg)": 88.98093454948811,
        "RAAN(deg)": 194.99332247846283,
        "Satellite Name": "Constellation 1 863",
        "Satellite Number": 863,
        "Semi-Major Axis(m)": 7083131.272910544,
        "Time(s)": 118
    },
    {
        "Altitude(m)": 707307.5867562753,
        "Argument of Periapsis(deg)": 0.0071338127432032696,
        "Eccentricity": 0.0,
        "Inclination(deg)": 45.0,
        "Latitude(deg)": 45.146419459499405,
        "Longitude(deg)": -176.81947373322677,
        "Mean Anomaly(deg)": 89.04163568973802,
        "RAAN(deg)": 194.99326588929725,
        "Satellite Name": "Constellation 1 863",
        "Satellite Number": 863,
        "Semi-Major Axis(m)": 7083131.272910544,
        "Time(s)": 119
    },
    {
        "Altitude(m)": 707307.8159837752,
        "Argument of Periapsis(deg)": 0.007193760749448674,
        "Eccentricity": 0.0,
        "Inclination(deg)": 45.0,
        "Latitude(deg)": 45.14739760620864,
        "Longitude(deg)": -176.73771080927918,
        "Mean Anomaly(deg)": 89.10233682998786,
        "RAAN(deg)": 194.9932093001317,
        "Satellite Name": "Constellation 1 863",
        "Satellite Number": 863,
        "Semi-Major Axis(m)": 7083131.272910544,
        "Time(s)": 120
    },
    {
        "Altitude(m)": 707308.0305814202,
        "Argument of Periapsis(deg)": 0.007253708755694079,
        "Eccentricity": 0.0,
        "Inclination(deg)": 45.0,
        "Latitude(deg)": 45.14831121312487,
        "Longitude(deg)": -176.65594504706974,
        "Mean Anomaly(deg)": 89.16303797023785,
        "RAAN(deg)": 194.9931527109661,
        "Satellite Name": "Constellation 1 863",
        "Satellite Number": 863,
        "Semi-Major Axis(m)": 7083131.272910544,
        "Time(s)": 121
    },
    {
        "Altitude(m)": 707308.2305479823,
        "Argument of Periapsis(deg)": 0.0073136567619394854,
        "Eccentricity": 0.0,
        "Inclination(deg)": 45.0,
        "Latitude(deg)": 45.14916027616662,
        "Longitude(deg)": -176.5741766401106,
        "Mean Anomaly(deg)": 89.22373911048771,
        "RAAN(deg)": 194.99309612180053,
        "Satellite Name": "Constellation 1 863",
        "Satellite Number": 863,
        "Semi-Major Axis(m)": 7083131.272910544,
        "Time(s)": 122
    },
    {
        "Altitude(m)": 707308.4158823456,
        "Argument of Periapsis(deg)": 0.0073736047681848904,
        "Eccentricity": 0.0,
        "Inclination(deg)": 45.0,
        "Latitude(deg)": 45.14994479154059,
        "Longitude(deg)": -176.4924057819612,
        "Mean Anomaly(deg)": 89.2844402507376,
        "RAAN(deg)": 194.99303953263495,
        "Satellite Name": "Constellation 1 863",
        "Satellite Number": 863,
        "Semi-Major Axis(m)": 7083131.272910544,
        "Time(s)": 123
    },
    {
        "Altitude(m)": 707308.5865834442,
        "Argument of Periapsis(deg)": 0.007433552774430298,
        "Eccentricity": 0.0,
        "Inclination(deg)": 45.0,
        "Latitude(deg)": 45.15066475574158,
        "Longitude(deg)": -176.41063266622538,
        "Mean Anomaly(deg)": 89.34514139098745,
        "RAAN(deg)": 194.9929829434694,
        "Satellite Name": "Constellation 1 863",
        "Satellite Number": 863,
        "Semi-Major Axis(m)": 7083131.272910544,
        "Time(s)": 124
    },
    {
        "Altitude(m)": 707308.7426503294,
        "Argument of Periapsis(deg)": 0.007493500780675703,
        "Eccentricity": 0.0,
        "Inclination(deg)": 45.0,
        "Latitude(deg)": 45.1513201655526,
        "Longitude(deg)": -176.32885748654726,
        "Mean Anomaly(deg)": 89.4058425312374,
        "RAAN(deg)": 194.9929263543038,
        "Satellite Name": "Constellation 1 863",
        "Satellite Number": 863,
        "Semi-Major Axis(m)": 7083131.272910544,
        "Time(s)": 125
    },
    {
        "Altitude(m)": 707308.8840821172,
        "Argument of Periapsis(deg)": 0.007553448786921108,
        "Eccentricity": 0.0,
        "Inclination(deg)": 45.0,
        "Latitude(deg)": 45.15191101804536,
        "Longitude(deg)": -176.24708060470567,
        "Mean Anomaly(deg)": 89.46654367148727,
        "RAAN(deg)": 194.99286976513824,
        "Satellite Name": "Constellation 1 863",
        "Satellite Number": 863,
        "Semi-Major Axis(m)": 7083131.272910544,
        "Time(s)": 126
    },
    {
        "Altitude(m)": 707309.0108780167,
        "Argument of Periapsis(deg)": 0.007613396793166514,
        "Eccentricity": 0.0,
        "Inclination(deg)": 45.0,
        "Latitude(deg)": 45.15243731057892,
        "Longitude(deg)": -176.16530187822175,
        "Mean Anomaly(deg)": 89.52724481173719,
        "RAAN(deg)": 194.99281317597269,
        "Satellite Name": "Constellation 1 863",
        "Satellite Number": 863,
        "Semi-Major Axis(m)": 7083131.272910544,
        "Time(s)": 127
    },
    {
        "Altitude(m)": 707309.1230373275,
        "Argument of Periapsis(deg)": 0.007673344799411918,
        "Eccentricity": 0.0,
        "Inclination(deg)": 45.0,
        "Latitude(deg)": 45.1528990408017,
        "Longitude(deg)": -176.08352166893798,
        "Mean Anomaly(deg)": 89.58794595198714,
        "RAAN(deg)": 194.9927565868071,
        "Satellite Name": "Constellation 1 863",
        "Satellite Number": 863,
        "Semi-Major Axis(m)": 7083131.272910544,
        "Time(s)": 128
    },
    {
        "Altitude(m)": 707309.2205594223,
        "Argument of Periapsis(deg)": 0.007733292805657325,
        "Eccentricity": 0.0,
        "Inclination(deg)": 45.0,
        "Latitude(deg)": 45.153296206650374,
        "Longitude(deg)": -176.00174017062676,
        "Mean Anomaly(deg)": 89.64864709223701,
        "RAAN(deg)": 194.99269999764155,
        "Satellite Name": "Constellation 1 863",
        "Satellite Number": 863,
        "Semi-Major Axis(m)": 7083131.272910544,
        "Time(s)": 129
    },
    {
        "Altitude(m)": 707309.3034437761,
        "Argument of Periapsis(deg)": 0.00779324081190273,
        "Eccentricity": 0.0,
        "Inclination(deg)": 45.0,
        "Latitude(deg)": 45.15362880634998,
        "Longitude(deg)": -175.9199575770834,
        "Mean Anomaly(deg)": 89.70934823248687,
        "RAAN(deg)": 194.99264340847594,
        "Satellite Name": "Constellation 1 863",
        "Satellite Number": 863,
        "Semi-Major Axis(m)": 7083131.272910544,
        "Time(s)": 130
    },
    {
        "Altitude(m)": 707309.371689931,
        "Argument of Periapsis(deg)": 0.007853188818148135,
        "Eccentricity": 0.0,
        "Inclination(deg)": 45.0,
        "Latitude(deg)": 45.15389683841425,
        "Longitude(deg)": -175.83817408212315,
        "Mean Anomaly(deg)": 89.77004937273676,
        "RAAN(deg)": 194.9925868193104,
        "Satellite Name": "Constellation 1 863",
        "Satellite Number": 863,
        "Semi-Major Axis(m)": 7083131.272910544,
        "Time(s)": 131
    },
    {
        "Altitude(m)": 707309.425297527,
        "Argument of Periapsis(deg)": 0.007913136824393542,
        "Eccentricity": 0.0,
        "Inclination(deg)": 45.0,
        "Latitude(deg)": 45.154100301645414,
        "Longitude(deg)": -175.7563898795774,
        "Mean Anomaly(deg)": 89.83075051298673,
        "RAAN(deg)": 194.9925302301448,
        "Satellite Name": "Constellation 1 863",
        "Satellite Number": 863,
        "Semi-Major Axis(m)": 7083131.272910544,
        "Time(s)": 132
    }
]